start=new Date('2021-11-19T00:00:00.000Z').valueOf();
sats=[{"MEAN_ELEMENT_THEORY":"SGP4","PERIAPSIS":"545.849","MEAN_ANOMALY":"286.9474","CLASSIFICATION_TYPE":"U","TLE_LINE2":"2 45697  53.0551 254.3886 0001978  73.1732 286.9474 15.06398441 82197","RCS_SIZE":"LARGE","CENTER_NAME":"EARTH","MEAN_MOTION_DDOT":"0.0000000000000","OBJECT_NAME":"STARLINK-1351","ECCENTRICITY":"0.00019780","BSTAR":"0.00004706100000","ARG_OF_PERICENTER":"73.1732","EPHEMERIS_TYPE":"0","LAUNCH_DATE":"2020-06-04","PERIOD":"95.592","TLE_LINE1":"1 45697U 20035AS  21322.51453473  .00000419  00000-0  47061-4 0  9999","REF_FRAME":"TEME","SEMIMAJOR_AXIS":"6925.353","RA_OF_ASC_NODE":"254.3886","MEAN_MOTION":"15.06398441","ELEMENT_SET_NO":"999","OBJECT_ID":"2020-035AS","INCLINATION":"53.0551","EPOCH":"2021-11-18T12:20:55.800672","DECAY_DATE":null,"APOAPSIS":"548.588","GP_ID":"190009419","NORAD_CAT_ID":"45697","REV_AT_EPOCH":"8219","TIME_SYSTEM":"UTC","SITE":"AFETR","FILE":"3218461","OBJECT_TYPE":"PAYLOAD","MEAN_MOTION_DOT":"0.00000419","COUNTRY_CODE":"US"},{"ELEMENT_SET_NO":"999","OBJECT_ID":"2020-035AT","INCLINATION":"53.0541","REF_FRAME":"TEME","TLE_LINE1":"1 45698U 20035AT  21322.23808504  .00000987  00000-0  85141-4 0  9999","PERIOD":"95.592","SEMIMAJOR_AXIS":"6925.346","RA_OF_ASC_NODE":"255.6411","MEAN_MOTION":"15.06400967","ARG_OF_PERICENTER":"62.8230","EPHEMERIS_TYPE":"0","LAUNCH_DATE":"2020-06-04","CENTER_NAME":"EARTH","MEAN_MOTION_DDOT":"0.0000000000000","ECCENTRICITY":"0.00017810","OBJECT_NAME":"STARLINK-1370","BSTAR":"0.00008514100000","TLE_LINE2":"2 45698  53.0541 255.6411 0001781  62.8230 297.2940 15.06400967 82151","RCS_SIZE":"LARGE","CLASSIFICATION_TYPE":"U","PERIAPSIS":"545.977","MEAN_ANOMALY":"297.2940","MEAN_ELEMENT_THEORY":"SGP4","COUNTRY_CODE":"US","MEAN_MOTION_DOT":"0.00000987","FILE":"3218461","OBJECT_TYPE":"PAYLOAD","TIME_SYSTEM":"UTC","SITE":"AFETR","REV_AT_EPOCH":"8215","APOAPSIS":"548.444","DECAY_DATE":null,"GP_ID":"190010169","NORAD_CAT_ID":"45698","EPOCH":"2021-11-18T05:42:50.547456"},{"TIME_SYSTEM":"UTC","SITE":"AFETR","FILE":"3218669","OBJECT_TYPE":"PAYLOAD","MEAN_MOTION_DOT":"-0.00000345","COUNTRY_CODE":"US","EPOCH":"2021-11-18T19:46:46.934976","DECAY_DATE":null,"APOAPSIS":"548.434","GP_ID":"190037256","NORAD_CAT_ID":"45699","REV_AT_EPOCH":"8223","CENTER_NAME":"EARTH","MEAN_MOTION_DDOT":"0.0000000000000","ECCENTRICITY":"0.00017610","OBJECT_NAME":"STARLINK-1398","BSTAR":"-0.00000427210000","ARG_OF_PERICENTER":"72.3610","EPHEMERIS_TYPE":"0","LAUNCH_DATE":"2020-06-04","PERIOD":"95.592","TLE_LINE1":"1 45699U 20035AU  21322.82415434 -.00000345  00000-0 -42721-5 0  9999","REF_FRAME":"TEME","SEMIMAJOR_AXIS":"6925.350","MEAN_MOTION":"15.06399553","RA_OF_ASC_NODE":"252.9920","ELEMENT_SET_NO":"999","INCLINATION":"53.0534","OBJECT_ID":"2020-035AU","MEAN_ELEMENT_THEORY":"SGP4","MEAN_ANOMALY":"287.7571","PERIAPSIS":"545.995","CLASSIFICATION_TYPE":"U","TLE_LINE2":"2 45699  53.0534 252.9920 0001761  72.3610 287.7571 15.06399553 82236","RCS_SIZE":"LARGE"},{"CLASSIFICATION_TYPE":"U","RCS_SIZE":"LARGE","TLE_LINE2":"2 45700  53.0552 254.2154 0001939  62.6464 297.4722 15.06388996 81783","MEAN_ELEMENT_THEORY":"SGP4","MEAN_ANOMALY":"297.4722","PERIAPSIS":"545.904","SEMIMAJOR_AXIS":"6925.382","PERIOD":"95.593","TLE_LINE1":"1 45700U 20035AV  21322.55509067 -.00002056  00000-0 -11916-3 0  9999","REF_FRAME":"TEME","RA_OF_ASC_NODE":"254.2154","MEAN_MOTION":"15.06388996","ELEMENT_SET_NO":"999","INCLINATION":"53.0552","OBJECT_ID":"2020-035AV","MEAN_MOTION_DDOT":"0.0000000000000","CENTER_NAME":"EARTH","BSTAR":"-0.00011916000000","OBJECT_NAME":"STARLINK-1400","ECCENTRICITY":"0.00019390","ARG_OF_PERICENTER":"62.6464","EPHEMERIS_TYPE":"0","LAUNCH_DATE":"2020-06-04","REV_AT_EPOCH":"8178","EPOCH":"2021-11-18T13:19:19.833888","DECAY_DATE":null,"APOAPSIS":"548.590","NORAD_CAT_ID":"45700","GP_ID":"190016015","MEAN_MOTION_DOT":"-0.00002056","COUNTRY_CODE":"US","TIME_SYSTEM":"UTC","SITE":"AFETR","OBJECT_TYPE":"PAYLOAD","FILE":"3218580"},{"MEAN_ANOMALY":"289.8233","PERIAPSIS":"545.940","MEAN_ELEMENT_THEORY":"SGP4","RCS_SIZE":"LARGE","TLE_LINE2":"2 45701  53.0534 254.3677 0001877  70.2959 289.8233 15.06391485 82184","CLASSIFICATION_TYPE":"U","LAUNCH_DATE":"2020-06-04","EPHEMERIS_TYPE":"0","ARG_OF_PERICENTER":"70.2959","BSTAR":"0.00004766300000","ECCENTRICITY":"0.00018770","OBJECT_NAME":"STARLINK-1403","MEAN_MOTION_DDOT":"0.0000000000000","CENTER_NAME":"EARTH","INCLINATION":"53.0534","OBJECT_ID":"2020-035AW","ELEMENT_SET_NO":"999","RA_OF_ASC_NODE":"254.3677","MEAN_MOTION":"15.06391485","SEMIMAJOR_AXIS":"6925.375","PERIOD":"95.593","TLE_LINE1":"1 45701U 20035AW  21322.51822674  .00000428  00000-0  47663-4 0  9996","REF_FRAME":"TEME","NORAD_CAT_ID":"45701","GP_ID":"190009919","APOAPSIS":"548.540","DECAY_DATE":null,"EPOCH":"2021-11-18T12:26:14.790336","REV_AT_EPOCH":"8218","OBJECT_TYPE":"PAYLOAD","FILE":"3218461","SITE":"AFETR","TIME_SYSTEM":"UTC","COUNTRY_CODE":"US","MEAN_MOTION_DOT":"0.00000428"},{"MEAN_ELEMENT_THEORY":"SGP4","PERIAPSIS":"545.972","MEAN_ANOMALY":"287.6900","CLASSIFICATION_TYPE":"U","RCS_SIZE":"LARGE","TLE_LINE2":"2 45702  53.0541 252.9649 0001818  72.4288 287.6900 15.06394384 82234","BSTAR":"0.00000426030000","OBJECT_NAME":"STARLINK-1405","ECCENTRICITY":"0.00018180","MEAN_MOTION_DDOT":"0.0000000000000","CENTER_NAME":"EARTH","EPHEMERIS_TYPE":"0","LAUNCH_DATE":"2020-06-04","ARG_OF_PERICENTER":"72.4288","MEAN_MOTION":"15.06394384","RA_OF_ASC_NODE":"252.9649","SEMIMAJOR_AXIS":"6925.366","TLE_LINE1":"1 45702U 20035AX  21322.83153170 -.00000218  00000-0  42603-5 0  9998","PERIOD":"95.592","REF_FRAME":"TEME","OBJECT_ID":"2020-035AX","INCLINATION":"53.0541","ELEMENT_SET_NO":"999","EPOCH":"2021-11-18T19:57:24.338880","NORAD_CAT_ID":"45702","GP_ID":"190036507","DECAY_DATE":null,"APOAPSIS":"548.490","REV_AT_EPOCH":"8223","SITE":"AFETR","TIME_SYSTEM":"UTC","OBJECT_TYPE":"PAYLOAD","FILE":"3218669","MEAN_MOTION_DOT":"-0.00000218","COUNTRY_CODE":"US"},{"NORAD_CAT_ID":"45703","GP_ID":"190036757","APOAPSIS":"548.409","DECAY_DATE":null,"EPOCH":"2021-11-18T19:52:05.138400","REV_AT_EPOCH":"8223","OBJECT_TYPE":"PAYLOAD","FILE":"3218669","SITE":"AFETR","TIME_SYSTEM":"UTC","COUNTRY_CODE":"US","MEAN_MOTION_DOT":"0.00000240","PERIAPSIS":"546.053","MEAN_ANOMALY":"295.7420","MEAN_ELEMENT_THEORY":"SGP4","RCS_SIZE":"LARGE","TLE_LINE2":"2 45703  53.0545 252.9885 0001701  64.3744 295.7420 15.06394253 82231","CLASSIFICATION_TYPE":"U","LAUNCH_DATE":"2020-06-04","EPHEMERIS_TYPE":"0","ARG_OF_PERICENTER":"64.3744","BSTAR":"0.00003503000000","ECCENTRICITY":"0.00017010","OBJECT_NAME":"STARLINK-1407","MEAN_MOTION_DDOT":"0.0000000000000","CENTER_NAME":"EARTH","INCLINATION":"53.0545","OBJECT_ID":"2020-035AY","ELEMENT_SET_NO":"999","MEAN_MOTION":"15.06394253","RA_OF_ASC_NODE":"252.9885","SEMIMAJOR_AXIS":"6925.366","TLE_LINE1":"1 45703U 20035AY  21322.82783725  .00000240  00000-0  35030-4 0  9992","PERIOD":"95.593","REF_FRAME":"TEME"},{"FILE":"3218669","OBJECT_TYPE":"PAYLOAD","TIME_SYSTEM":"UTC","SITE":"AFETR","COUNTRY_CODE":"US","MEAN_MOTION_DOT":"-0.00000729","DECAY_DATE":null,"APOAPSIS":"548.250","GP_ID":"190038008","NORAD_CAT_ID":"45704","EPOCH":"2021-11-18T22:04:45.391584","REV_AT_EPOCH":"8183","ARG_OF_PERICENTER":"63.2022","LAUNCH_DATE":"2020-06-04","EPHEMERIS_TYPE":"0","CENTER_NAME":"EARTH","MEAN_MOTION_DDOT":"0.0000000000000","ECCENTRICITY":"0.00014950","OBJECT_NAME":"STARLINK-1409","BSTAR":"-0.00003001500000","ELEMENT_SET_NO":"999","OBJECT_ID":"2020-035AZ","INCLINATION":"53.0542","TLE_LINE1":"1 45704U 20035AZ  21322.91996981 -.00000729  00000-0 -30015-4 0  9995","PERIOD":"95.592","REF_FRAME":"TEME","SEMIMAJOR_AXIS":"6925.350","MEAN_MOTION":"15.06399604","RA_OF_ASC_NODE":"282.5238","MEAN_ANOMALY":"296.9120","PERIAPSIS":"546.179","MEAN_ELEMENT_THEORY":"SGP4","TLE_LINE2":"2 45704  53.0542 282.5238 0001495  63.2022 296.9120 15.06399604 81837","RCS_SIZE":"LARGE","CLASSIFICATION_TYPE":"U"},{"REV_AT_EPOCH":"8181","APOAPSIS":"548.398","DECAY_DATE":null,"GP_ID":"190038259","NORAD_CAT_ID":"45705","EPOCH":"2021-11-18T21:07:44.229792","COUNTRY_CODE":"US","MEAN_MOTION_DOT":"0.00000239","FILE":"3218669","OBJECT_TYPE":"PAYLOAD","TIME_SYSTEM":"UTC","SITE":"AFETR","TLE_LINE2":"2 45705  53.0538 282.7572 0001680  67.8415 292.2752 15.06393016 81817","RCS_SIZE":"LARGE","CLASSIFICATION_TYPE":"U","MEAN_ANOMALY":"292.2752","PERIAPSIS":"546.072","MEAN_ELEMENT_THEORY":"SGP4","ELEMENT_SET_NO":"999","OBJECT_ID":"2020-035BA","INCLINATION":"53.0538","TLE_LINE1":"1 45705U 20035BA  21322.88037303  .00000239  00000-0  34981-4 0  9996","PERIOD":"95.593","REF_FRAME":"TEME","SEMIMAJOR_AXIS":"6925.370","MEAN_MOTION":"15.06393016","RA_OF_ASC_NODE":"282.7572","ARG_OF_PERICENTER":"67.8415","LAUNCH_DATE":"2020-06-04","EPHEMERIS_TYPE":"0","CENTER_NAME":"EARTH","MEAN_MOTION_DDOT":"0.0000000000000","ECCENTRICITY":"0.00016800","OBJECT_NAME":"STARLINK-1410","BSTAR":"0.00003498100000"},{"REV_AT_EPOCH":"8222","GP_ID":"190037007","NORAD_CAT_ID":"45706","APOAPSIS":"548.581","DECAY_DATE":null,"EPOCH":"2021-11-18T19:20:14.764416","COUNTRY_CODE":"US","MEAN_MOTION_DOT":"-0.00001694","FILE":"3218669","OBJECT_TYPE":"PAYLOAD","SITE":"AFETR","TIME_SYSTEM":"UTC","TLE_LINE2":"2 45706  53.0541 253.0831 0001976  76.4424 283.6785 15.06400208 82223","RCS_SIZE":"LARGE","CLASSIFICATION_TYPE":"U","PERIAPSIS":"545.844","MEAN_ANOMALY":"283.6785","MEAN_ELEMENT_THEORY":"SGP4","OBJECT_ID":"2020-035BB","INCLINATION":"53.0541","ELEMENT_SET_NO":"999","RA_OF_ASC_NODE":"253.0831","MEAN_MOTION":"15.06400208","TLE_LINE1":"1 45706U 20035BB  21322.80572644 -.00001694  00000-0 -94866-4 0  9997","PERIOD":"95.592","REF_FRAME":"TEME","SEMIMAJOR_AXIS":"6925.348","EPHEMERIS_TYPE":"0","LAUNCH_DATE":"2020-06-04","ARG_OF_PERICENTER":"76.4424","ECCENTRICITY":"0.00019760","OBJECT_NAME":"STARLINK-1411","BSTAR":"-0.00009486600000","CENTER_NAME":"EARTH","MEAN_MOTION_DDOT":"0.0000000000000"}];
